[{"OBJECT_NAME":"STARLINK-3983","OBJECT_ID":"2022-052W","EPOCH":"2026-03-09T19:33:33.614496","MEAN_MOTION":15.08838836,"ECCENTRICITY":0.0001743,"INCLINATION":53.2166,"RA_OF_ASC_NODE":268.5584,"ARG_OF_PERICENTER":92.1081,"MEAN_ANOMALY":268.0111,"EPHEMERIS_TYPE":0,"CLASSIFICATION_TYPE":"U","NORAD_CAT_ID":52618,"ELEMENT_SET_NO":999,"REV_AT_EPOCH":21100,"BSTAR":3.2240021e-5,"MEAN_MOTION_DOT":2.25e-6,"MEAN_MOTION_DDOT":0},{"OBJECT_NAME":"CSC-1","OBJECT_ID":"2023-155G","EPOCH":"2026-03-09T17:46:02.342496","MEAN_MOTION":15.1003596,"ECCENTRICITY":0.00075041,"INCLINATION":97.5446,"RA_OF_ASC_NODE":139.7305,"ARG_OF_PERICENTER":212.9992,"MEAN_ANOMALY":147.077,"EPHEMERIS_TYPE":0,"CLASSIFICATION_TYPE":"U","NORAD_CAT_ID":58022,"ELEMENT_SET_NO":999,"REV_AT_EPOCH":13272,"BSTAR":0.00054556609,"MEAN_MOTION_DOT":8.819e-5,"MEAN_MOTION_DDOT":0}]
