STARLINK-3983           
1 52618U 22052W   26068.81497239  .00000225  00000+0  32240-4 0  9991
2 52618  53.2166 268.5584 0001743  92.1081 268.0111 15.08838836211004
CSC-1                   
1 58022U 23155G   26068.74030489  .00008819  00000+0  54557-3 0  9994
2 58022  97.5446 139.7305 0007504 212.9992 147.0770 15.10035960132723
